{"type": "FeatureCollection", "features": [ {"type": "Feature", "properties": {"norad_id": 29999, "name": "FENGYUN 1C DEB", "group": "fengyun-1c-debris", "lat": 25.308334863936476, "lon": -24.396939703610382, "alt_km": 786.2769164623578, "timestamp": "2025-12-21T16:47:55.011318+00:00", "meta": {"OBJECT_NAME": "FENGYUN 1C DEB", "OBJECT_ID": "1999-025LZ", "EPOCH": "2025-12-21T12:11:38.576832", "MEAN_MOTION": 14.201469, "ECCENTRICITY": 0.0189761, "INCLINATION": 98.5771, "RA_OF_ASC_NODE": 339.5095, "ARG_OF_PERICENTER": 101.2943, "MEAN_ANOMALY": 26.1972, "EPHEMERIS_TYPE": 0, "CLASSIFICATION_TYPE": "U", "NORAD_CAT_ID": 29999, "ELEMENT_SET_NO": 999, "REV_AT_EPOCH": 97848, "BSTAR": 0.00024599, "MEAN_MOTION_DOT": 5.86e-06, "MEAN_MOTION_DDOT": 0}, "tle": {"line1": "1 29999U 99025LZ  25355.50808538  .00000586  00000+0  24599-3 0  9990", "line2": "2 29999  98.5771 339.5095 0189761 101.2943  26.1972 14.20146900978483"}}, "geometry": {"type": "Point", "coordinates": [-24.396939703610382, 25.308334863936476]}}, {"type": "Feature", "properties": {"norad_id": 30001, "name": "FENGYUN 1C DEB", "group": "fengyun-1c-debris", "lat": -31.93693134858997, "lon": -114.50655738496162, "alt_km": 788.8966771251817, "timestamp": "2025-12-21T16:47:55.011329+00:00", "meta": {"OBJECT_NAME": "FENGYUN 1C DEB", "OBJECT_ID": "1999-025MA", "EPOCH": "2025-12-21T04:15:54.416160", "MEAN_MOTION": 14.38697469, "ECCENTRICITY": 0.00366386, "INCLINATION": 98.9595, "RA_OF_ASC_NODE": 70.5921, "ARG_OF_PERICENTER": 73.562, "MEAN_ANOMALY": 315.1908, "EPHEMERIS_TYPE": 0, "CLASSIFICATION_TYPE": "U", "NORAD_CAT_ID": 30001, "ELEMENT_SET_NO": 999, "REV_AT_EPOCH": 97553, "BSTAR": 0.0015947635, "MEAN_MOTION_DOT": 4.886e-05, "MEAN_MOTION_DDOT": 0}, "tle": {"line1": "1 30001U 99025MA  25355.17771315  .00004886  00000+0  15948-2 0  9995", "line2": "2 30001  98.9595  70.5921 0036638  73.5620 315.1908 14.38697469975537"}}, "geometry": {"type": "Point", "coordinates": [-114.50655738496162, -31.93693134858997]}}, {"type": "Feature", "properties": {"norad_id": 30003, "name": "FENGYUN 1C DEB", "group": "fengyun-1c-debris", "lat": 65.65877831488896, "lon": 172.60929423629636, "alt_km": 836.4082998073018, "timestamp": "2025-12-21T16:47:55.011339+00:00", "meta": {"OBJECT_NAME": "FENGYUN 1C DEB", "OBJECT_ID": "1999-025MC", "EPOCH": "2025-12-21T11:39:12.225024", "MEAN_MOTION": 13.85631655, "ECCENTRICITY": 0.0143637, "INCLINATION": 99.5779, "RA_OF_ASC_NODE": 330.4751, "ARG_OF_PERICENTER": 96.7445, "MEAN_ANOMALY": 26.4015, "EPHEMERIS_TYPE": 0, "CLASSIFICATION_TYPE": "U", "NORAD_CAT_ID": 30003, "ELEMENT_SET_NO": 999, "REV_AT_EPOCH": 95609, "BSTAR": 0.00032301, "MEAN_MOTION_DOT": 3.55e-06, "MEAN_MOTION_DDOT": 0}, "tle": {"line1": "1 30003U 99025MC  25355.48555816  .00000355  00000+0  32301-3 0  9997", "line2": "2 30003  99.5779 330.4751 0143637  96.7445  26.4015 13.85631655956096"}}, "geometry": {"type": "Point", "coordinates": [172.60929423629636, 65.65877831488896]}}, {"type": "Feature", "properties": {"norad_id": 30004, "name": "FENGYUN 1C DEB", "group": "fengyun-1c-debris", "lat": -59.237672183704895, "lon": -18.689900134112637, "alt_km": 835.955400414231, "timestamp": "2025-12-21T16:47:55.011349+00:00", "meta": {"OBJECT_NAME": "FENGYUN 1C DEB", "OBJECT_ID": "1999-025MD", "EPOCH": "2025-12-21T00:59:49.246080", "MEAN_MOTION": 14.17081457, "ECCENTRICITY": 0.00384589, "INCLINATION": 99.2237, "RA_OF_ASC_NODE": 176.4699, "ARG_OF_PERICENTER": 319.2946, "MEAN_ANOMALY": 164.6292, "EPHEMERIS_TYPE": 0, "CLASSIFICATION_TYPE": "U", "NORAD_CAT_ID": 30004, "ELEMENT_SET_NO": 999, "REV_AT_EPOCH": 97424, "BSTAR": 0.00052436669, "MEAN_MOTION_DOT": 1.015e-05, "MEAN_MOTION_DDOT": 0}, "tle": {"line1": "1 30004U 99025MD  25355.04154220  .00001015  00000+0  52437-3 0  9990", "line2": "2 30004  99.2237 176.4699 0038458 319.2946 164.6292 14.17081457974249"}}, "geometry": {"type": "Point", "coordinates": [-18.689900134112637, -59.237672183704895]}}, {"type": "Feature", "properties": {"norad_id": 30005, "name": "FENGYUN 1C DEB", "group": "fengyun-1c-debris", "lat": 31.19985488166995, "lon": 142.8059187712735, "alt_km": 997.8947992808853, "timestamp": "2025-12-21T16:47:55.011359+00:00", "meta": {"OBJECT_NAME": "FENGYUN 1C DEB", "OBJECT_ID": "1999-025ME", "EPOCH": "2025-12-18T20:37:37.606656", "MEAN_MOTION": 13.52232242, "ECCENTRICITY": 0.03470849, "INCLINATION": 99.3023, "RA_OF_ASC_NODE": 314.4408, "ARG_OF_PERICENTER": 77.8968, "MEAN_ANOMALY": 286.0828, "EPHEMERIS_TYPE": 0, "CLASSIFICATION_TYPE": "U", "NORAD_CAT_ID": 30005, "ELEMENT_SET_NO": 999, "REV_AT_EPOCH": 93029, "BSTAR": 0.0012018224, "MEAN_MOTION_DOT": 1.119e-05, "MEAN_MOTION_DDOT": 0}, "tle": {"line1": "1 30005U 99025ME  25352.85946304  .00001119  00000+0  12018-2 0  9994", "line2": "2 30005  99.3023 314.4408 0347084  77.8968 286.0828 13.52232242930294"}}, "geometry": {"type": "Point", "coordinates": [142.8059187712735, 31.19985488166995]}}, {"type": "Feature", "properties": {"norad_id": 30007, "name": "FENGYUN 1C DEB", "group": "fengyun-1c-debris", "lat": -26.997297889424846, "lon": 72.73693809604661, "alt_km": 849.7167553115787, "timestamp": "2025-12-21T16:47:55.011369+00:00", "meta": {"OBJECT_NAME": "FENGYUN 1C DEB", "OBJECT_ID": "1999-025MG", "EPOCH": "2025-12-21T11:36:30.161952", "MEAN_MOTION": 14.25482281, "ECCENTRICITY": 0.0065432, "INCLINATION": 99.1788, "RA_OF_ASC_NODE": 257.2358, "ARG_OF_PERICENTER": 350.361, "MEAN_ANOMALY": 188.1961, "EPHEMERIS_TYPE": 0, "CLASSIFICATION_TYPE": "U", "NORAD_CAT_ID": 30007, "ELEMENT_SET_NO": 999, "REV_AT_EPOCH": 97480, "BSTAR": 0.0013924, "MEAN_MOTION_DOT": 3.317e-05, "MEAN_MOTION_DDOT": 0}, "tle": {"line1": "1 30007U 99025MG  25355.48368243  .00003317  00000+0  13924-2 0  9997", "line2": "2 30007  99.1788 257.2358 0065432 350.3610 188.1961 14.25482281974803"}}, "geometry": {"type": "Point", "coordinates": [72.73693809604661, -26.997297889424846]}}, {"type": "Feature", "properties": {"norad_id": 30008, "name": "FENGYUN 1C DEB", "group": "fengyun-1c-debris", "lat": -16.89200740298034, "lon": -43.79249013078668, "alt_km": 704.9824875356535, "timestamp": "2025-12-21T16:47:55.011379+00:00", "meta": {"OBJECT_NAME": "FENGYUN 1C DEB", "OBJECT_ID": "1999-025MH", "EPOCH": "2025-12-21T09:22:38.532864", "MEAN_MOTION": 14.66453503, "ECCENTRICITY": 0.003931, "INCLINATION": 99.3697, "RA_OF_ASC_NODE": 312.9808, "ARG_OF_PERICENTER": 164.8452, "MEAN_ANOMALY": 346.6399, "EPHEMERIS_TYPE": 0, "CLASSIFICATION_TYPE": "U", "NORAD_CAT_ID": 30008, "ELEMENT_SET_NO": 999, "REV_AT_EPOCH": 99186, "BSTAR": 0.001205, "MEAN_MOTION_DOT": 6.69e-05, "MEAN_MOTION_DDOT": 0}, "tle": {"line1": "1 30008U 99025MH  25355.39072376  .00006690  00000+0  12050-2 0  9993", "line2": "2 30008  99.3697 312.9808 0039310 164.8452 346.6399 14.66453503991863"}}, "geometry": {"type": "Point", "coordinates": [-43.79249013078668, -16.89200740298034]}}, {"type": "Feature", "properties": {"norad_id": 30009, "name": "FENGYUN 1C DEB", "group": "fengyun-1c-debris", "lat": -39.19726215826216, "lon": -136.87472857516144, "alt_km": 883.0136607567574, "timestamp": "2025-12-21T16:47:55.011389+00:00", "meta": {"OBJECT_NAME": "FENGYUN 1C DEB", "OBJECT_ID": "1999-025MJ", "EPOCH": "2025-12-21T08:54:46.265184", "MEAN_MOTION": 14.04878466, "ECCENTRICITY": 0.0064222, "INCLINATION": 99.0143, "RA_OF_ASC_NODE": 50.2369, "ARG_OF_PERICENTER": 310.557, "MEAN_ANOMALY": 49.0017, "EPHEMERIS_TYPE": 0, "CLASSIFICATION_TYPE": "U", "NORAD_CAT_ID": 30009, "ELEMENT_SET_NO": 999, "REV_AT_EPOCH": 96604, "BSTAR": 0.00082078, "MEAN_MOTION_DOT": 1.298e-05, "MEAN_MOTION_DDOT": 0}, "tle": {"line1": "1 30009U 99025MJ  25355.37136881  .00001298  00000+0  82078-3 0  9991", "line2": "2 30009  99.0143  50.2369 0064222 310.5570  49.0017 14.04878466966046"}}, "geometry": {"type": "Point", "coordinates": [-136.87472857516144, -39.19726215826216]}}, {"type": "Feature", "properties": {"norad_id": 30010, "name": "FENGYUN 1C DEB", "group": "fengyun-1c-debris", "lat": -19.41250162644592, "lon": -168.61688503445194, "alt_km": 861.8253837770444, "timestamp": "2025-12-21T16:47:55.011399+00:00", "meta": {"OBJECT_NAME": "FENGYUN 1C DEB", "OBJECT_ID": "1999-025MK", "EPOCH": "2025-12-21T12:05:29.162400", "MEAN_MOTION": 14.24992901, "ECCENTRICITY": 0.0073059, "INCLINATION": 99.0695, "RA_OF_ASC_NODE": 187.9537, "ARG_OF_PERICENTER": 184.0946, "MEAN_ANOMALY": 230.4298, "EPHEMERIS_TYPE": 0, "CLASSIFICATION_TYPE": "U", "NORAD_CAT_ID": 30010, "ELEMENT_SET_NO": 999, "REV_AT_EPOCH": 98385, "BSTAR": 0.00010563, "MEAN_MOTION_DOT": 2.07e-06, "MEAN_MOTION_DDOT": 0}, "tle": {"line1": "1 30010U 99025MK  25355.50380975  .00000207  00000+0  10563-3 0  9992", "line2": "2 30010  99.0695 187.9537 0073059 184.0946 230.4298 14.24992901983852"}}, "geometry": {"type": "Point", "coordinates": [-168.61688503445194, -19.41250162644592]}}, {"type": "Feature", "properties": {"norad_id": 30012, "name": "FENGYUN 1C DEB", "group": "fengyun-1c-debris", "lat": 68.27261934498364, "lon": -106.23811705561073, "alt_km": 838.559465574901, "timestamp": "2025-12-21T16:47:55.011409+00:00", "meta": {"OBJECT_NAME": "FENGYUN 1C DEB", "OBJECT_ID": "1999-025MM", "EPOCH": "2025-12-21T01:00:13.506336", "MEAN_MOTION": 13.85770892, "ECCENTRICITY": 0.01372221, "INCLINATION": 99.4631, "RA_OF_ASC_NODE": 48.3558, "ARG_OF_PERICENTER": 123.6965, "MEAN_ANOMALY": 304.7872, "EPHEMERIS_TYPE": 0, "CLASSIFICATION_TYPE": "U", "NORAD_CAT_ID": 30012, "ELEMENT_SET_NO": 999, "REV_AT_EPOCH": 95663, "BSTAR": 0.00022606114, "MEAN_MOTION_DOT": 2.34e-06, "MEAN_MOTION_DDOT": 0}, "tle": {"line1": "1 30012U 99025MM  25355.04182299  .00000234  00000+0  22606-3 0  9993", "line2": "2 30012  99.4631  48.3558 0137222 123.6965 304.7872 13.85770892956632"}}, "geometry": {"type": "Point", "coordinates": [-106.23811705561073, 68.27261934498364]}}]}